CCSDS_OMM_VERS = 2.0
CREATION_DATE  = 
ORIGINATOR     = 

OBJECT_NAME    = SL-14 R/B
OBJECT_ID      = 1991-042B
CENTER_NAME    = EARTH
REF_FRAME      = TEME
TIME_SYSTEM    = UTC
MEAN_ELEMENT_THEORY = SGP/SGP4

EPOCH          = 2025-12-21T06:58:41.885184
MEAN_MOTION    = 14.81746063
ECCENTRICITY   = .00181339
INCLINATION    = 82.4934
RA_OF_ASC_NODE = 293.7047
ARG_OF_PERICENTER = 134.8306
MEAN_ANOMALY   = 225.4386

EPHEMERIS_TYPE = 0
CLASSIFICATION_TYPE = U
NORAD_CAT_ID   = 21423
ELEMENT_SET_NO = 999
REV_AT_EPOCH   = 84146
BSTAR          = .4293577E-4
MEAN_MOTION_DOT = .363E-5
MEAN_MOTION_DDOT = 0

CCSDS_OMM_VERS = 2.0
CREATION_DATE  = 
ORIGINATOR     = 

OBJECT_NAME    = ERS-1
OBJECT_ID      = 1991-050A
CENTER_NAME    = EARTH
REF_FRAME      = TEME
TIME_SYSTEM    = UTC
MEAN_ELEMENT_THEORY = SGP/SGP4

EPOCH          = 2025-12-21T13:34:00.715584
MEAN_MOTION    = 14.39370952
ECCENTRICITY   = .00329883
INCLINATION    = 98.7900
RA_OF_ASC_NODE = 6.8407
ARG_OF_PERICENTER = 74.5939
MEAN_ANOMALY   = 285.8889

EPHEMERIS_TYPE = 0
CLASSIFICATION_TYPE = U
NORAD_CAT_ID   = 21574
ELEMENT_SET_NO = 999
REV_AT_EPOCH   = 80449
BSTAR          = .90980444E-4
MEAN_MOTION_DOT = .238E-5
MEAN_MOTION_DDOT = 0

CCSDS_OMM_VERS = 2.0
CREATION_DATE  = 
ORIGINATOR     = 

OBJECT_NAME    = ARIANE 40 R/B
OBJECT_ID      = 1991-050F
CENTER_NAME    = EARTH
REF_FRAME      = TEME
TIME_SYSTEM    = UTC
MEAN_ELEMENT_THEORY = SGP/SGP4

EPOCH          = 2025-12-21T14:15:08.589888
MEAN_MOTION    = 14.42820000
ECCENTRICITY   = .0002248
INCLINATION    = 98.2153
RA_OF_ASC_NODE = 45.7045
ARG_OF_PERICENTER = 329.5220
MEAN_ANOMALY   = 30.5840

EPHEMERIS_TYPE = 0
CLASSIFICATION_TYPE = U
NORAD_CAT_ID   = 21610
ELEMENT_SET_NO = 999
REV_AT_EPOCH   = 80773
BSTAR          = .91349595E-4
MEAN_MOTION_DOT = .263E-5
MEAN_MOTION_DDOT = 0

CCSDS_OMM_VERS = 2.0
CREATION_DATE  = 
ORIGINATOR     = 

OBJECT_NAME    = INTERCOSMOS 25
OBJECT_ID      = 1991-086A
CENTER_NAME    = EARTH
REF_FRAME      = TEME
TIME_SYSTEM    = UTC
MEAN_ELEMENT_THEORY = SGP/SGP4

EPOCH          = 2025-12-21T11:15:54.118368
MEAN_MOTION    = 12.11760081
ECCENTRICITY   = .14863685
INCLINATION    = 82.6071
RA_OF_ASC_NODE = 357.2949
ARG_OF_PERICENTER = 285.5749
MEAN_ANOMALY   = 58.6511

EPHEMERIS_TYPE = 0
CLASSIFICATION_TYPE = U
NORAD_CAT_ID   = 21819
ELEMENT_SET_NO = 999
REV_AT_EPOCH   = 48721
BSTAR          = .38324195E-3
MEAN_MOTION_DOT = .1924E-4
MEAN_MOTION_DDOT = 0

CCSDS_OMM_VERS = 2.0
CREATION_DATE  = 
ORIGINATOR     = 

OBJECT_NAME    = SL-8 R/B
OBJECT_ID      = 1992-008B
CENTER_NAME    = EARTH
REF_FRAME      = TEME
TIME_SYSTEM    = UTC
MEAN_ELEMENT_THEORY = SGP/SGP4

EPOCH          = 2025-12-21T09:58:17.508288
MEAN_MOTION    = 13.75960855
ECCENTRICITY   = .00346345
INCLINATION    = 82.9269
RA_OF_ASC_NODE = 325.9929
ARG_OF_PERICENTER = 355.7550
MEAN_ANOMALY   = 115.0680

EPHEMERIS_TYPE = 0
CLASSIFICATION_TYPE = U
NORAD_CAT_ID   = 21876
ELEMENT_SET_NO = 999
REV_AT_EPOCH   = 69865
BSTAR          = .93894282E-4
MEAN_MOTION_DOT = .106E-5
MEAN_MOTION_DDOT = 0

CCSDS_OMM_VERS = 2.0
CREATION_DATE  = 
ORIGINATOR     = 

OBJECT_NAME    = SL-8 R/B
OBJECT_ID      = 1992-020B
CENTER_NAME    = EARTH
REF_FRAME      = TEME
TIME_SYSTEM    = UTC
MEAN_ELEMENT_THEORY = SGP/SGP4

EPOCH          = 2025-12-21T15:25:58.355328
MEAN_MOTION    = 13.75529289
ECCENTRICITY   = .00294782
INCLINATION    = 82.9296
RA_OF_ASC_NODE = 211.7062
ARG_OF_PERICENTER = 153.4772
MEAN_ANOMALY   = 269.9472

EPHEMERIS_TYPE = 0
CLASSIFICATION_TYPE = U
NORAD_CAT_ID   = 21938
ELEMENT_SET_NO = 999
REV_AT_EPOCH   = 69040
BSTAR          = .11782565E-3
MEAN_MOTION_DOT = .129E-5
MEAN_MOTION_DDOT = 0

CCSDS_OMM_VERS = 2.0
CREATION_DATE  = 
ORIGINATOR     = 

OBJECT_NAME    = USA 81
OBJECT_ID      = 1992-023A
CENTER_NAME    = EARTH
REF_FRAME      = TEME
TIME_SYSTEM    = UTC
MEAN_ELEMENT_THEORY = SGP/SGP4

EPOCH          = 2025-12-21T11:41:21.093216
MEAN_MOTION    = 14.32329917
ECCENTRICITY   = .00011283
INCLINATION    = 85.0079
RA_OF_ASC_NODE = 176.5311
ARG_OF_PERICENTER = 79.4022
MEAN_ANOMALY   = 280.7298

EPHEMERIS_TYPE = 0
CLASSIFICATION_TYPE = U
NORAD_CAT_ID   = 21949
ELEMENT_SET_NO = 999
REV_AT_EPOCH   = 8359
BSTAR          = .53588065E-4
MEAN_MOTION_DOT = .165E-5
MEAN_MOTION_DDOT = 0

CCSDS_OMM_VERS = 2.0
CREATION_DATE  = 
ORIGINATOR     = 

OBJECT_NAME    = COSMOS 2219
OBJECT_ID      = 1992-076A
CENTER_NAME    = EARTH
REF_FRAME      = TEME
TIME_SYSTEM    = UTC
MEAN_ELEMENT_THEORY = SGP/SGP4

EPOCH          = 2025-12-20T20:37:53.609664
MEAN_MOTION    = 14.14064805
ECCENTRICITY   = .0019234
INCLINATION    = 71.0573
RA_OF_ASC_NODE = 182.8582
ARG_OF_PERICENTER = 315.8435
MEAN_ANOMALY   = 44.1151

EPHEMERIS_TYPE = 0
CLASSIFICATION_TYPE = U
NORAD_CAT_ID   = 22219
ELEMENT_SET_NO = 999
REV_AT_EPOCH   = 70723
BSTAR          = .13552E-3
MEAN_MOTION_DOT = .211E-5
MEAN_MOTION_DDOT = 0

CCSDS_OMM_VERS = 2.0
CREATION_DATE  = 
ORIGINATOR     = 

OBJECT_NAME    = SL-16 R/B
OBJECT_ID      = 1992-076B
CENTER_NAME    = EARTH
REF_FRAME      = TEME
TIME_SYSTEM    = UTC
MEAN_ELEMENT_THEORY = SGP/SGP4

EPOCH          = 2025-12-21T11:34:07.504320
MEAN_MOTION    = 14.16843984
ECCENTRICITY   = .00143492
INCLINATION    = 71.0007
RA_OF_ASC_NODE = 353.1159
ARG_OF_PERICENTER = 222.2615
MEAN_ANOMALY   = 251.7583

EPHEMERIS_TYPE = 0
CLASSIFICATION_TYPE = U
NORAD_CAT_ID   = 22220
ELEMENT_SET_NO = 999
REV_AT_EPOCH   = 71075
BSTAR          = .13696554E-3
MEAN_MOTION_DOT = .227E-5
MEAN_MOTION_DDOT = 0

CCSDS_OMM_VERS = 2.0
CREATION_DATE  = 
ORIGINATOR     = 

OBJECT_NAME    = COSMOS 2221
OBJECT_ID      = 1992-080A
CENTER_NAME    = EARTH
REF_FRAME      = TEME
TIME_SYSTEM    = UTC
MEAN_ELEMENT_THEORY = SGP/SGP4

EPOCH          = 2025-12-21T12:20:45.879360
MEAN_MOTION    = 14.95791351
ECCENTRICITY   = .00162824
INCLINATION    = 82.5038
RA_OF_ASC_NODE = 353.9261
ARG_OF_PERICENTER = 94.6718
MEAN_ANOMALY   = 265.6364

EPHEMERIS_TYPE = 0
CLASSIFICATION_TYPE = U
NORAD_CAT_ID   = 22236
ELEMENT_SET_NO = 999
REV_AT_EPOCH   = 76910
BSTAR          = .13914332E-3
MEAN_MOTION_DOT = .1582E-4
MEAN_MOTION_DDOT = 0

CCSDS_OMM_VERS = 2.0
CREATION_DATE  = 
ORIGINATOR     = 

OBJECT_NAME    = SL-16 R/B
OBJECT_ID      = 1992-093B
CENTER_NAME    = EARTH
REF_FRAME      = TEME
TIME_SYSTEM    = UTC
MEAN_ELEMENT_THEORY = SGP/SGP4

EPOCH          = 2025-12-21T13:52:15.548736
MEAN_MOTION    = 14.15434865
ECCENTRICITY   = .00023965
INCLINATION    = 71.0204
RA_OF_ASC_NODE = 168.2425
ARG_OF_PERICENTER = 42.0300
MEAN_ANOMALY   = 318.1007

EPHEMERIS_TYPE = 0
CLASSIFICATION_TYPE = U
NORAD_CAT_ID   = 22285
ELEMENT_SET_NO = 999
REV_AT_EPOCH   = 70210
BSTAR          = .57186585E-4
MEAN_MOTION_DOT = .64E-6
MEAN_MOTION_DDOT = 0

CCSDS_OMM_VERS = 2.0
CREATION_DATE  = 
ORIGINATOR     = 

OBJECT_NAME    = COSMOS 2228
OBJECT_ID      = 1992-094A
CENTER_NAME    = EARTH
REF_FRAME      = TEME
TIME_SYSTEM    = UTC
MEAN_ELEMENT_THEORY = SGP/SGP4

EPOCH          = 2025-12-21T10:45:14.919840
MEAN_MOTION    = 14.96766224
ECCENTRICITY   = .00171612
INCLINATION    = 82.5183
RA_OF_ASC_NODE = 312.2017
ARG_OF_PERICENTER = 200.2114
MEAN_ANOMALY   = 159.8431

EPHEMERIS_TYPE = 0
CLASSIFICATION_TYPE = U
NORAD_CAT_ID   = 22286
ELEMENT_SET_NO = 999
REV_AT_EPOCH   = 76435
BSTAR          = .15689776E-3
MEAN_MOTION_DOT = .1825E-4
MEAN_MOTION_DDOT = 0

