SL-14 R/B               
1 21423U 91042B   25355.29076256  .00000363  00000+0  42936-4 0  9994
2 21423  82.4934 293.7047 0018133 134.8306 225.4386 14.81746063841460
ERS-1                   
1 21574U 91050A   25355.56528606  .00000238  00000+0  90980-4 0  9994
2 21574  98.7900   6.8407 0032988  74.5939 285.8889 14.39370952804492
ARIANE 40 R/B           
1 21610U 91050F   25355.59384942  .00000263  00000+0  91350-4 0  9991
2 21610  98.2153  45.7045 0002248 329.5220  30.5840 14.42820000807730
INTERCOSMOS 25          
1 21819U 91086A   25355.46937637  .00001924  00000+0  38324-3 0  9998
2 21819  82.6071 357.2949 1486368 285.5749  58.6511 12.11760081487217
SL-8 R/B                
1 21876U 92008B   25355.41548042  .00000106  00000+0  93894-4 0  9994
2 21876  82.9269 325.9929 0034634 355.7550 115.0680 13.75960855698655
SL-8 R/B                
1 21938U 92020B   25355.64303652  .00000129  00000+0  11783-3 0  9999
2 21938  82.9296 211.7062 0029478 153.4772 269.9472 13.75529289690408
USA 81                  
1 21949U 92023A   25355.48704969  .00000165  00000+0  53588-4 0  9992
2 21949  85.0079 176.5311 0001128  79.4022 280.7298 14.32329917 83598
COSMOS 2219             
1 22219U 92076A   25354.85964826  .00000211  00000+0  13552-3 0  9999
2 22219  71.0573 182.8582 0019234 315.8435  44.1151 14.14064805707231
SL-16 R/B               
1 22220U 92076B   25355.48203130  .00000227  00000+0  13697-3 0  9992
2 22220  71.0007 353.1159 0014349 222.2615 251.7583 14.16843984710752
COSMOS 2221             
1 22236U 92080A   25355.51441990  .00001582  00000+0  13914-3 0  9993
2 22236  82.5038 353.9261 0016282  94.6718 265.6364 14.95791351769106
SL-16 R/B               
1 22285U 92093B   25355.57795774  .00000064  00000+0  57187-4 0  9994
2 22285  71.0204 168.2425 0002396  42.0300 318.1007 14.15434865702103
COSMOS 2228             
1 22286U 92094A   25355.44808935  .00001825  00000+0  15690-3 0  9994
2 22286  82.5183 312.2017 0017161 200.2114 159.8431 14.96766224764354
